{"type": "FeatureCollection", "features": [ {"type": "Feature", "properties": {"norad_id": 42738, "name": "QZS-2 (QZSS/PRN 194)", "group": "gnss", "lat": -38.43439663848574, "lon": 138.56700981493864, "alt_km": 32671.159577046445, "timestamp": "2025-12-09T18:55:17.475437+00:00", "meta": {"OBJECT_NAME": "QZS-2 (QZSS/PRN 194)", "OBJECT_ID": "2017-028A", "EPOCH": "2025-12-09T05:14:08.661120", "MEAN_MOTION": 1.00283977, "ECCENTRICITY": 0.0758111, "INCLINATION": 39.72, "RA_OF_ASC_NODE": 245.9352, "ARG_OF_PERICENTER": 269.4397, "MEAN_ANOMALY": 143.0606, "EPHEMERIS_TYPE": 0, "CLASSIFICATION_TYPE": "U", "NORAD_CAT_ID": 42738, "ELEMENT_SET_NO": 999, "REV_AT_EPOCH": 572, "BSTAR": 0, "MEAN_MOTION_DOT": -1.91e-06, "MEAN_MOTION_DDOT": 0}, "tle": {"line1": "1 42738U 17028A   25343.21815580 -.00000191  00000+0  00000+0 0  9999", "line2": "2 42738  39.7200 245.9352 0758111 269.4397 143.0606  1.00283977  5721"}}, "geometry": {"type": "Point", "coordinates": [138.56700981493864, -38.43439663848574]}}, {"type": "Feature", "properties": {"norad_id": 42917, "name": "QZS-3 (QZSS/PRN 199)", "group": "gnss", "lat": -0.04762980806616593, "lon": 129.62710123593743, "alt_km": 35792.13104347172, "timestamp": "2025-12-09T18:55:17.475449+00:00", "meta": {"OBJECT_NAME": "QZS-3 (QZSS/PRN 199)", "OBJECT_ID": "2017-048A", "EPOCH": "2025-12-09T12:27:51.553152", "MEAN_MOTION": 1.00273344, "ECCENTRICITY": 0.00021464, "INCLINATION": 0.0633, "RA_OF_ASC_NODE": 204.8722, "ARG_OF_PERICENTER": 59.9144, "MEAN_ANOMALY": 127.7365, "EPHEMERIS_TYPE": 0, "CLASSIFICATION_TYPE": "U", "NORAD_CAT_ID": 42917, "ELEMENT_SET_NO": 999, "REV_AT_EPOCH": 3035, "BSTAR": 0, "MEAN_MOTION_DOT": -3.45e-06, "MEAN_MOTION_DDOT": 0}, "tle": {"line1": "1 42917U 17048A   25343.51934668 -.00000345  00000+0  00000+0 0  9993", "line2": "2 42917   0.0633 204.8722 0002146  59.9144 127.7365  1.00273344 30353"}}, "geometry": {"type": "Point", "coordinates": [129.62710123593743, -0.04762980806616593]}}, {"type": "Feature", "properties": {"norad_id": 42939, "name": "COSMOS 2522 (752)", "group": "gnss", "lat": -7.828749721598868, "lon": 22.1683751128232, "alt_km": 19118.198359819944, "timestamp": "2025-12-09T18:55:17.475461+00:00", "meta": {"OBJECT_NAME": "COSMOS 2522 (752)", "OBJECT_ID": "2017-055A", "EPOCH": "2025-12-08T03:13:49.063296", "MEAN_MOTION": 2.13101881, "ECCENTRICITY": 0.00064484, "INCLINATION": 64.0758, "RA_OF_ASC_NODE": 198.386, "ARG_OF_PERICENTER": 225.1717, "MEAN_ANOMALY": 134.8539, "EPHEMERIS_TYPE": 0, "CLASSIFICATION_TYPE": "U", "NORAD_CAT_ID": 42939, "ELEMENT_SET_NO": 999, "REV_AT_EPOCH": 6390, "BSTAR": 0, "MEAN_MOTION_DOT": 5.1e-07, "MEAN_MOTION_DDOT": 0}, "tle": {"line1": "1 42939U 17055A   25342.13459564  .00000051  00000+0  00000+0 0  9992", "line2": "2 42939  64.0758 198.3860 0006448 225.1717 134.8539  2.13101881 63907"}}, "geometry": {"type": "Point", "coordinates": [22.1683751128232, -7.828749721598868]}}, {"type": "Feature", "properties": {"norad_id": 42965, "name": "QZS-4 (QZSS/PRN 195)", "group": "gnss", "lat": 21.125706093527985, "lon": 138.70300790008295, "alt_km": 37468.844535989956, "timestamp": "2025-12-09T18:55:17.475489+00:00", "meta": {"OBJECT_NAME": "QZS-4 (QZSS/PRN 195)", "OBJECT_ID": "2017-062A", "EPOCH": "2025-12-09T13:25:49.268928", "MEAN_MOTION": 1.00253406, "ECCENTRICITY": 0.07522355, "INCLINATION": 40.2274, "RA_OF_ASC_NODE": 345.9105, "ARG_OF_PERICENTER": 271.4771, "MEAN_ANOMALY": 159.2733, "EPHEMERIS_TYPE": 0, "CLASSIFICATION_TYPE": "U", "NORAD_CAT_ID": 42965, "ELEMENT_SET_NO": 999, "REV_AT_EPOCH": 2990, "BSTAR": 0, "MEAN_MOTION_DOT": -3.56e-06, "MEAN_MOTION_DDOT": 0}, "tle": {"line1": "1 42965U 17062A   25343.55959802 -.00000356  00000+0  00000+0 0  9995", "line2": "2 42965  40.2274 345.9105 0752235 271.4771 159.2733  1.00253406 29908"}}, "geometry": {"type": "Point", "coordinates": [138.70300790008295, 21.125706093527985]}}, {"type": "Feature", "properties": {"norad_id": 43001, "name": "BEIDOU-3 M1 (C19)", "group": "gnss", "lat": 36.6012993702304, "lon": -140.04949585278658, "alt_km": 21548.37443454542, "timestamp": "2025-12-09T18:55:17.475506+00:00", "meta": {"OBJECT_NAME": "BEIDOU-3 M1 (C19)", "OBJECT_ID": "2017-069A", "EPOCH": "2025-12-09T14:06:31.413312", "MEAN_MOTION": 1.8623096, "ECCENTRICITY": 0.00090283, "INCLINATION": 56.5248, "RA_OF_ASC_NODE": 69.3379, "ARG_OF_PERICENTER": 303.8833, "MEAN_ANOMALY": 56.0533, "EPHEMERIS_TYPE": 0, "CLASSIFICATION_TYPE": "U", "NORAD_CAT_ID": 43001, "ELEMENT_SET_NO": 999, "REV_AT_EPOCH": 5507, "BSTAR": 0, "MEAN_MOTION_DOT": -4.9e-07, "MEAN_MOTION_DDOT": 0}, "tle": {"line1": "1 43001U 17069A   25343.58786358 -.00000049  00000+0  00000+0 0  9990", "line2": "2 43001  56.5248  69.3379 0009028 303.8833  56.0533  1.86230960 55078"}}, "geometry": {"type": "Point", "coordinates": [-140.04949585278658, 36.6012993702304]}}, {"type": "Feature", "properties": {"norad_id": 43002, "name": "BEIDOU-3 M2 (C20)", "group": "gnss", "lat": 3.534680294618235, "lon": -112.96244325251077, "alt_km": 21544.004547997825, "timestamp": "2025-12-09T18:55:17.475517+00:00", "meta": {"OBJECT_NAME": "BEIDOU-3 M2 (C20)", "OBJECT_ID": "2017-069B", "EPOCH": "2025-12-09T12:37:45.820128", "MEAN_MOTION": 1.8623055, "ECCENTRICITY": 0.00062541, "INCLINATION": 56.5238, "RA_OF_ASC_NODE": 69.3764, "ARG_OF_PERICENTER": 332.6094, "MEAN_ANOMALY": 27.38, "EPHEMERIS_TYPE": 0, "CLASSIFICATION_TYPE": "U", "NORAD_CAT_ID": 43002, "ELEMENT_SET_NO": 999, "REV_AT_EPOCH": 5506, "BSTAR": 0, "MEAN_MOTION_DOT": -4.8e-07, "MEAN_MOTION_DDOT": 0}, "tle": {"line1": "1 43002U 17069B   25343.52622477 -.00000048  00000+0  00000+0 0  9995", "line2": "2 43002  56.5238  69.3764 0006254 332.6094  27.3800  1.86230550 55065"}}, "geometry": {"type": "Point", "coordinates": [-112.96244325251077, 3.534680294618235]}}, {"type": "Feature", "properties": {"norad_id": 43055, "name": "GSAT0215 (GALILEO 19)", "group": "gnss", "lat": 26.939848687034768, "lon": 25.99376552279218, "alt_km": 23222.60054672645, "timestamp": "2025-12-09T18:55:17.475531+00:00", "meta": {"OBJECT_NAME": "GSAT0215 (GALILEO 19)", "OBJECT_ID": "2017-079A", "EPOCH": "2025-12-07T04:52:59.598912", "MEAN_MOTION": 1.70473814, "ECCENTRICITY": 0.000129, "INCLINATION": 55.132, "RA_OF_ASC_NODE": 226.7904, "ARG_OF_PERICENTER": 342.2986, "MEAN_ANOMALY": 17.7924, "EPHEMERIS_TYPE": 0, "CLASSIFICATION_TYPE": "U", "NORAD_CAT_ID": 43055, "ELEMENT_SET_NO": 999, "REV_AT_EPOCH": 4971, "BSTAR": 0, "MEAN_MOTION_DOT": 2.6e-07, "MEAN_MOTION_DDOT": 0}, "tle": {"line1": "1 43055U 17079A   25341.20346758  .00000026  00000+0  00000+0 0  9997", "line2": "2 43055  55.1320 226.7904 0001290 342.2986  17.7924  1.70473814 49717"}}, "geometry": {"type": "Point", "coordinates": [25.99376552279218, 26.939848687034768]}}, {"type": "Feature", "properties": {"norad_id": 43056, "name": "GSAT0216 (GALILEO 20)", "group": "gnss", "lat": -26.03222451311375, "lon": -153.16447543539718, "alt_km": 23218.262799526507, "timestamp": "2025-12-09T18:55:17.475542+00:00", "meta": {"OBJECT_NAME": "GSAT0216 (GALILEO 20)", "OBJECT_ID": "2017-079B", "EPOCH": "2025-12-08T01:57:06.766848", "MEAN_MOTION": 1.70473892, "ECCENTRICITY": 0.00025149, "INCLINATION": 55.132, "RA_OF_ASC_NODE": 226.7661, "ARG_OF_PERICENTER": 318.3772, "MEAN_ANOMALY": 41.6956, "EPHEMERIS_TYPE": 0, "CLASSIFICATION_TYPE": "U", "NORAD_CAT_ID": 43056, "ELEMENT_SET_NO": 999, "REV_AT_EPOCH": 4974, "BSTAR": 0, "MEAN_MOTION_DOT": 1.9e-07, "MEAN_MOTION_DDOT": 0}, "tle": {"line1": "1 43056U 17079B   25342.08132832  .00000019  00000+0  00000+0 0  9993", "line2": "2 43056  55.1320 226.7661 0002514 318.3772  41.6956  1.70473892 49745"}}, "geometry": {"type": "Point", "coordinates": [-153.16447543539718, -26.03222451311375]}}, {"type": "Feature", "properties": {"norad_id": 43057, "name": "GSAT0217 (GALILEO 21)", "group": "gnss", "lat": -10.020291886380601, "lon": 53.79732905984314, "alt_km": 23230.920839780356, "timestamp": "2025-12-09T18:55:17.475553+00:00", "meta": {"OBJECT_NAME": "GSAT0217 (GALILEO 21)", "OBJECT_ID": "2017-079C", "EPOCH": "2025-12-08T07:14:55.853376", "MEAN_MOTION": 1.70473894, "ECCENTRICITY": 0.0002795, "INCLINATION": 55.1299, "RA_OF_ASC_NODE": 226.758, "ARG_OF_PERICENTER": 342.2851, "MEAN_ANOMALY": 17.7961, "EPHEMERIS_TYPE": 0, "CLASSIFICATION_TYPE": "U", "NORAD_CAT_ID": 43057, "ELEMENT_SET_NO": 999, "REV_AT_EPOCH": 4973, "BSTAR": 0, "MEAN_MOTION_DOT": 1.7e-07, "MEAN_MOTION_DDOT": 0}, "tle": {"line1": "1 43057U 17079C   25342.30203534  .00000017  00000+0  00000+0 0  9995", "line2": "2 43057  55.1299 226.7580 0002795 342.2851  17.7961  1.70473894 49737"}}, "geometry": {"type": "Point", "coordinates": [53.79732905984314, -10.020291886380601]}}, {"type": "Feature", "properties": {"norad_id": 43058, "name": "GSAT0218 (GALILEO 22)", "group": "gnss", "lat": 43.59822202319836, "lon": -91.7156552737357, "alt_km": 23219.888805709797, "timestamp": "2025-12-09T18:55:17.475564+00:00", "meta": {"OBJECT_NAME": "GSAT0218 (GALILEO 22)", "OBJECT_ID": "2017-079D", "EPOCH": "2025-12-09T02:36:28.325952", "MEAN_MOTION": 1.70473942, "ECCENTRICITY": 0.00028125, "INCLINATION": 55.1298, "RA_OF_ASC_NODE": 226.7335, "ARG_OF_PERICENTER": 306.3632, "MEAN_ANOMALY": 53.6978, "EPHEMERIS_TYPE": 0, "CLASSIFICATION_TYPE": "U", "NORAD_CAT_ID": 43058, "ELEMENT_SET_NO": 999, "REV_AT_EPOCH": 4977, "BSTAR": 0, "MEAN_MOTION_DOT": 1.2e-07, "MEAN_MOTION_DDOT": 0}, "tle": {"line1": "1 43058U 17079D   25343.10866118  .00000012  00000+0  00000+0 0  9993", "line2": "2 43058  55.1298 226.7335 0002812 306.3632  53.6978  1.70473942 49778"}}, "geometry": {"type": "Point", "coordinates": [-91.7156552737357, 43.59822202319836]}}]}